{"type": "FeatureCollection", "features": [ {"type": "Feature", "properties": {"norad_id": 32260, "name": "GPS BIIRM-4 (PRN 15)", "group": "gnss", "lat": 42.01700774172289, "lon": 128.43005573388064, "alt_km": 19796.295474504444, "timestamp": "2025-12-18T19:29:52.786709+00:00", "meta": {"OBJECT_NAME": "GPS BIIRM-4 (PRN 15)", "OBJECT_ID": "2007-047A", "EPOCH": "2025-12-16T05:50:40.680960", "MEAN_MOTION": 2.00564415, "ECCENTRICITY": 0.01640743, "INCLINATION": 53.9576, "RA_OF_ASC_NODE": 87.6137, "ARG_OF_PERICENTER": 85.2864, "MEAN_ANOMALY": 276.5744, "EPHEMERIS_TYPE": 0, "CLASSIFICATION_TYPE": "U", "NORAD_CAT_ID": 32260, "ELEMENT_SET_NO": 999, "REV_AT_EPOCH": 13314, "BSTAR": 0, "MEAN_MOTION_DOT": -5.5e-07, "MEAN_MOTION_DDOT": 0}, "tle": {"line1": "1 32260U 07047A   25350.24352640 -.00000055  00000+0  00000+0 0  9991", "line2": "2 32260  53.9576  87.6137 0164074  85.2864 276.5744  2.00564415133141"}}, "geometry": {"type": "Point", "coordinates": [128.43005573388064, 42.01700774172289]}}, {"type": "Feature", "properties": {"norad_id": 32275, "name": "COSMOS 2433 (720)", "group": "gnss", "lat": 59.19399770838669, "lon": 11.297096626869166, "alt_km": 19137.058269897185, "timestamp": "2025-12-18T19:29:52.786721+00:00", "meta": {"OBJECT_NAME": "COSMOS 2433 (720)", "OBJECT_ID": "2007-052A", "EPOCH": "2025-12-14T23:11:38.718240", "MEAN_MOTION": 2.13103955, "ECCENTRICITY": 0.00054201, "INCLINATION": 65.6819, "RA_OF_ASC_NODE": 322.1305, "ARG_OF_PERICENTER": 253.5649, "MEAN_ANOMALY": 106.3736, "EPHEMERIS_TYPE": 0, "CLASSIFICATION_TYPE": "U", "NORAD_CAT_ID": 32275, "ELEMENT_SET_NO": 999, "REV_AT_EPOCH": 14113, "BSTAR": 0, "MEAN_MOTION_DOT": -6.5e-07, "MEAN_MOTION_DDOT": 0}, "tle": {"line1": "1 32275U 07052A   25348.96642035 -.00000065  00000+0  00000+0 0  9990", "line2": "2 32275  65.6819 322.1305 0005420 253.5649 106.3736  2.13103955141132"}}, "geometry": {"type": "Point", "coordinates": [11.297096626869166, 59.19399770838669]}}, {"type": "Feature", "properties": {"norad_id": 32276, "name": "COSMOS 2432 (719)", "group": "gnss", "lat": 13.672743984768259, "lon": -31.579484137602243, "alt_km": 19115.33227703108, "timestamp": "2025-12-18T19:29:52.786733+00:00", "meta": {"OBJECT_NAME": "COSMOS 2432 (719)", "OBJECT_ID": "2007-052B", "EPOCH": "2025-12-15T06:31:38.583840", "MEAN_MOTION": 2.13103103, "ECCENTRICITY": 0.00112605, "INCLINATION": 65.6973, "RA_OF_ASC_NODE": 322.2446, "ARG_OF_PERICENTER": 312.4858, "MEAN_ANOMALY": 226.3212, "EPHEMERIS_TYPE": 0, "CLASSIFICATION_TYPE": "U", "NORAD_CAT_ID": 32276, "ELEMENT_SET_NO": 999, "REV_AT_EPOCH": 14116, "BSTAR": 0, "MEAN_MOTION_DOT": -6.6e-07, "MEAN_MOTION_DDOT": 0}, "tle": {"line1": "1 32276U 07052B   25349.27197435 -.00000066  00000+0  00000+0 0  9996", "line2": "2 32276  65.6973 322.2446 0011260 312.4858 226.3212  2.13103103141167"}}, "geometry": {"type": "Point", "coordinates": [-31.579484137602243, 13.672743984768259]}}, {"type": "Feature", "properties": {"norad_id": 32384, "name": "GPS BIIRM-5 (PRN 29)", "group": "gnss", "lat": -5.260091582276405, "lon": 105.05431433109506, "alt_km": 20103.603909060952, "timestamp": "2025-12-18T19:29:52.786745+00:00", "meta": {"OBJECT_NAME": "GPS BIIRM-5 (PRN 29)", "OBJECT_ID": "2007-062A", "EPOCH": "2025-12-18T04:16:41.212992", "MEAN_MOTION": 2.00577654, "ECCENTRICITY": 0.00322562, "INCLINATION": 55.1774, "RA_OF_ASC_NODE": 281.4278, "ARG_OF_PERICENTER": 162.2486, "MEAN_ANOMALY": 286.0474, "EPHEMERIS_TYPE": 0, "CLASSIFICATION_TYPE": "U", "NORAD_CAT_ID": 32384, "ELEMENT_SET_NO": 999, "REV_AT_EPOCH": 13188, "BSTAR": 0, "MEAN_MOTION_DOT": -4.7e-07, "MEAN_MOTION_DDOT": 0}, "tle": {"line1": "1 32384U 07062A   25352.17825478 -.00000047  00000+0  00000+0 0  9994", "line2": "2 32384  55.1774 281.4278 0032256 162.2486 286.0474  2.00577654131888"}}, "geometry": {"type": "Point", "coordinates": [105.05431433109506, -5.260091582276405]}}, {"type": "Feature", "properties": {"norad_id": 32393, "name": "COSMOS 2434 (721)", "group": "gnss", "lat": -34.58042773855413, "lon": 178.61950480318094, "alt_km": 19138.342511068102, "timestamp": "2025-12-18T19:29:52.786757+00:00", "meta": {"OBJECT_NAME": "COSMOS 2434 (721)", "OBJECT_ID": "2007-065A", "EPOCH": "2025-12-18T04:23:29.536800", "MEAN_MOTION": 2.13101428, "ECCENTRICITY": 0.00044399, "INCLINATION": 64.3148, "RA_OF_ASC_NODE": 198.0196, "ARG_OF_PERICENTER": 71.1558, "MEAN_ANOMALY": 127.0412, "EPHEMERIS_TYPE": 0, "CLASSIFICATION_TYPE": "U", "NORAD_CAT_ID": 32393, "ELEMENT_SET_NO": 999, "REV_AT_EPOCH": 13991, "BSTAR": 0, "MEAN_MOTION_DOT": 1.1e-06, "MEAN_MOTION_DDOT": 0}, "tle": {"line1": "1 32393U 07065A   25352.18298075  .00000110  00000+0  00000+0 0  9995", "line2": "2 32393  64.3148 198.0196 0004439  71.1558 127.0412  2.13101428139911"}}, "geometry": {"type": "Point", "coordinates": [178.61950480318094, -34.58042773855413]}}, {"type": "Feature", "properties": {"norad_id": 32395, "name": "COSMOS 2436 (723)", "group": "gnss", "lat": 63.97088223383759, "lon": -62.1383588998261, "alt_km": 19119.10532105771, "timestamp": "2025-12-18T19:29:52.786769+00:00", "meta": {"OBJECT_NAME": "COSMOS 2436 (723)", "OBJECT_ID": "2007-065C", "EPOCH": "2025-12-16T08:11:52.503360", "MEAN_MOTION": 2.13100112, "ECCENTRICITY": 0.00177699, "INCLINATION": 64.3235, "RA_OF_ASC_NODE": 198.1521, "ARG_OF_PERICENTER": 9.2217, "MEAN_ANOMALY": 349.3751, "EPHEMERIS_TYPE": 0, "CLASSIFICATION_TYPE": "U", "NORAD_CAT_ID": 32395, "ELEMENT_SET_NO": 999, "REV_AT_EPOCH": 13982, "BSTAR": 0, "MEAN_MOTION_DOT": 1.1e-06, "MEAN_MOTION_DDOT": 0}, "tle": {"line1": "1 32395U 07065C   25350.34157990  .00000110  00000+0  00000+0 0  9993", "line2": "2 32395  64.3235 198.1521 0017769   9.2217 349.3751  2.13100112139821"}}, "geometry": {"type": "Point", "coordinates": [-62.1383588998261, 63.97088223383759]}}, {"type": "Feature", "properties": {"norad_id": 32711, "name": "GPS BIIRM-6 (PRN 07)", "group": "gnss", "lat": 50.38185685984187, "lon": -82.57302722155573, "alt_km": 20559.741211563705, "timestamp": "2025-12-18T19:29:52.786780+00:00", "meta": {"OBJECT_NAME": "GPS BIIRM-6 (PRN 07)", "OBJECT_ID": "2008-012A", "EPOCH": "2025-12-17T15:49:41.763360", "MEAN_MOTION": 2.00565887, "ECCENTRICITY": 0.02026439, "INCLINATION": 54.4776, "RA_OF_ASC_NODE": 157.1765, "ARG_OF_PERICENTER": 245.0018, "MEAN_ANOMALY": 112.8836, "EPHEMERIS_TYPE": 0, "CLASSIFICATION_TYPE": "U", "NORAD_CAT_ID": 32711, "ELEMENT_SET_NO": 999, "REV_AT_EPOCH": 13011, "BSTAR": 0, "MEAN_MOTION_DOT": 7.7e-07, "MEAN_MOTION_DDOT": 0}, "tle": {"line1": "1 32711U 08012A   25351.65951115  .00000077  00000+0  00000+0 0  9996", "line2": "2 32711  54.4776 157.1765 0202643 245.0018 112.8836  2.00565887130114"}}, "geometry": {"type": "Point", "coordinates": [-82.57302722155573, 50.38185685984187]}}, {"type": "Feature", "properties": {"norad_id": 35752, "name": "GPS BIIRM-8 (PRN 05)", "group": "gnss", "lat": 38.98071530780037, "lon": -178.38307009558753, "alt_km": 20086.693056772056, "timestamp": "2025-12-18T19:29:52.786792+00:00", "meta": {"OBJECT_NAME": "GPS BIIRM-8 (PRN 05)", "OBJECT_ID": "2009-043A", "EPOCH": "2025-12-18T04:21:14.473728", "MEAN_MOTION": 2.00565462, "ECCENTRICITY": 0.00516833, "INCLINATION": 56.0947, "RA_OF_ASC_NODE": 34.5684, "ARG_OF_PERICENTER": 81.8123, "MEAN_ANOMALY": 312.8651, "EPHEMERIS_TYPE": 0, "CLASSIFICATION_TYPE": "U", "NORAD_CAT_ID": 35752, "ELEMENT_SET_NO": 999, "REV_AT_EPOCH": 11973, "BSTAR": 0, "MEAN_MOTION_DOT": -7.2e-07, "MEAN_MOTION_DDOT": 0}, "tle": {"line1": "1 35752U 09043A   25352.18141752 -.00000072  00000+0  00000+0 0  9992", "line2": "2 35752  56.0947  34.5684 0051683  81.8123 312.8651  2.00565462119738"}}, "geometry": {"type": "Point", "coordinates": [-178.38307009558753, 38.98071530780037]}}, {"type": "Feature", "properties": {"norad_id": 36111, "name": "COSMOS 2456 (730)", "group": "gnss", "lat": 52.95939745305265, "lon": -141.1691065677077, "alt_km": 19131.915244112955, "timestamp": "2025-12-18T19:29:52.786804+00:00", "meta": {"OBJECT_NAME": "COSMOS 2456 (730)", "OBJECT_ID": "2009-070A", "EPOCH": "2025-12-18T06:55:18.738048", "MEAN_MOTION": 2.13103695, "ECCENTRICITY": 0.00031882, "INCLINATION": 64.9035, "RA_OF_ASC_NODE": 77.1481, "ARG_OF_PERICENTER": 297.6027, "MEAN_ANOMALY": 138.5871, "EPHEMERIS_TYPE": 0, "CLASSIFICATION_TYPE": "U", "NORAD_CAT_ID": 36111, "ELEMENT_SET_NO": 999, "REV_AT_EPOCH": 12457, "BSTAR": 0, "MEAN_MOTION_DOT": -4.1e-07, "MEAN_MOTION_DDOT": 0}, "tle": {"line1": "1 36111U 09070A   25352.28841132 -.00000041  00000+0  00000+0 0  9998", "line2": "2 36111  64.9035  77.1481 0003188 297.6027 138.5871  2.13103695124574"}}, "geometry": {"type": "Point", "coordinates": [-141.1691065677077, 52.95939745305265]}}, {"type": "Feature", "properties": {"norad_id": 36112, "name": "COSMOS 2457 (733)", "group": "gnss", "lat": -56.69554468841441, "lon": -57.56841122941585, "alt_km": 19135.6264810568, "timestamp": "2025-12-18T19:29:52.786815+00:00", "meta": {"OBJECT_NAME": "COSMOS 2457 (733)", "OBJECT_ID": "2009-070B", "EPOCH": "2025-12-17T13:03:42.379200", "MEAN_MOTION": 2.13100979, "ECCENTRICITY": 0.00046214, "INCLINATION": 64.8886, "RA_OF_ASC_NODE": 77.0209, "ARG_OF_PERICENTER": 159.9242, "MEAN_ANOMALY": 194.4541, "EPHEMERIS_TYPE": 0, "CLASSIFICATION_TYPE": "U", "NORAD_CAT_ID": 36112, "ELEMENT_SET_NO": 999, "REV_AT_EPOCH": 12455, "BSTAR": 0, "MEAN_MOTION_DOT": -4.8e-07, "MEAN_MOTION_DDOT": 0}, "tle": {"line1": "1 36112U 09070B   25351.54424050 -.00000048  00000+0  00000+0 0  9990", "line2": "2 36112  64.8886  77.0209 0004621 159.9242 194.4541  2.13100979124552"}}, "geometry": {"type": "Point", "coordinates": [-57.56841122941585, -56.69554468841441]}}]}